{
    "links": {
        "self": "http://www.neowsapp.com/rest/v1/neo/3843868?api_key=iIulBulltgU6a56xZRHN4H3l9WmuAYTsLGpBGhQ2"
    },
    "id": "3843868",
    "neo_reference_id": "3843868",
    "name": "(2019 SC)",
    "designation": "2019 SC",
    "nasa_jpl_url": "http://ssd.jpl.nasa.gov/sbdb.cgi?sstr=3843868",
    "absolute_magnitude_h": 27.4,
    "estimated_diameter": {
        "kilometers": {
            "estimated_diameter_min": 0.0088014652,
            "estimated_diameter_max": 0.0196806745
        },
        "meters": {
            "estimated_diameter_min": 8.801465209,
            "estimated_diameter_max": 19.6806745089
        },
        "miles": {
            "estimated_diameter_min": 0.0054689752,
            "estimated_diameter_max": 0.0122290004
        },
        "feet": {
            "estimated_diameter_min": 28.8761991163,
            "estimated_diameter_max": 64.5691441559
        }
    },
    "is_potentially_hazardous_asteroid": false,
    "close_approach_data": [
        {
            "close_approach_date": "2018-01-04",
            "close_approach_date_full": "2018-Jan-04 22:15",
            "epoch_date_close_approach": 1515104100000,
            "relative_velocity": {
                "kilometers_per_second": "5.8632402332",
                "kilometers_per_hour": "21107.6648395722",
                "miles_per_hour": "13115.4820776775"
            },
            "miss_distance": {
                "astronomical": "1.6309855507",
                "lunar": "634.4533792223",
                "kilometers": "243991964.385497009",
                "miles": "151609576.4396723642"
            },
            "orbiting_body": "Juptr"
        },
        {
            "close_approach_date": "2019-09-19",
            "close_approach_date_full": "2019-Sep-19 18:18",
            "epoch_date_close_approach": 1568917080000,
            "relative_velocity": {
                "kilometers_per_second": "12.5057973205",
                "kilometers_per_hour": "45020.8703536661",
                "miles_per_hour": "27974.2180261432"
            },
            "miss_distance": {
                "astronomical": "0.0010302009",
                "lunar": "0.4007481501",
                "kilometers": "154115.860312083",
                "miles": "95763.1550014254"
            },
            "orbiting_body": "Moon"
        },
        {
            "close_approach_date": "2019-09-19",
            "close_approach_date_full": "2019-Sep-19 18:37",
            "epoch_date_close_approach": 1568918220000,
            "relative_velocity": {
                "kilometers_per_second": "13.4987501699",
                "kilometers_per_hour": "48595.5006115244",
                "miles_per_hour": "30195.3542549775"
            },
            "miss_distance": {
                "astronomical": "0.0035973916",
                "lunar": "1.3993853324",
                "kilometers": "538162.120915892",
                "miles": "334398.4356756296"
            },
            "orbiting_body": "Earth"
        },
        {
            "close_approach_date": "2036-01-07",
            "close_approach_date_full": "2036-Jan-07 03:26",
            "epoch_date_close_approach": 2083289160000,
            "relative_velocity": {
                "kilometers_per_second": "17.1889971874",
                "kilometers_per_hour": "61880.3898746843",
                "miles_per_hour": "38450.0678085226"
            },
            "miss_distance": {
                "astronomical": "0.1048939639",
                "lunar": "40.8037519571",
                "kilometers": "15691913.575296893",
                "miles": "9750502.9588594034"
            },
            "orbiting_body": "Earth"
        }
    ],
    "orbital_data": {
        "orbit_id": "5",
        "orbit_determination_date": "2019-12-04 07:19:33",
        "first_observation_date": "2019-09-06",
        "last_observation_date": "2019-09-20",
        "data_arc_in_days": 14,
        "observations_used": 76,
        "orbit_uncertainty": "7",
        "minimum_orbit_intersection": ".000678638",
        "jupiter_tisserand_invariant": "3.106",
        "epoch_osculation": "2459000.5",
        "eccentricity": ".6582865255817709",
        "semi_major_axis": "2.530813745981301",
        "inclination": ".4437868752861102",
        "ascending_node_longitude": "171.7610438436482",
        "orbital_period": "1470.580164544733",
        "perihelion_distance": ".8648131582446837",
        "perihelion_argument": "234.3885949072647",
        "aphelion_distance": "4.196814333717918",
        "perihelion_time": "2458781.247126444552",
        "mean_anomaly": "53.67339801186353",
        "mean_motion": ".2448013434965989",
        "equinox": "J2000",
        "orbit_class": {
            "orbit_class_type": "APO",
            "orbit_class_description": "Near-Earth asteroid orbits which cross the Earth’s orbit similar to that of 1862 Apollo",
            "orbit_class_range": "a (semi-major axis) > 1.0 AU; q (perihelion) < 1.017 AU"
        }
    },
    "is_sentry_object": false
}